{"type": "FeatureCollection", "features": [{"type": "Feature", "properties": {"norad_id": 66516, "name": "STARLINK-35924", "group": "last-30-days", "lat": -16.427482069979604, "lon": 3.674824311206907, "alt_km": 445.2412959383373, "timestamp": "2025-12-18T07:01:53.339341+00:00", "meta": {"OBJECT_NAME": "STARLINK-35924", "OBJECT_ID": "2025-265A", "EPOCH": "2025-12-17T10:54:39.486816", "MEAN_MOTION": 15.40680292, "ECCENTRICITY": 0.00011071, "INCLINATION": 43.0005, "RA_OF_ASC_NODE": 26.952, "ARG_OF_PERICENTER": 267.9232, "MEAN_ANOMALY": 92.1498, "EPHEMERIS_TYPE": 0, "CLASSIFICATION_TYPE": "U", "NORAD_CAT_ID": 66516, "ELEMENT_SET_NO": 999, "REV_AT_EPOCH": 448, "BSTAR": 0.00066769215, "MEAN_MOTION_DOT": 0.0002767, "MEAN_MOTION_DDOT": 0}, "tle": {"line1": "1 66516U 25265A   25351.45462369  .00027670  00000+0  66769-3 0  9997", "line2": "2 66516  43.0005  26.9520 0001107 267.9232  92.1498 15.40680292  4488"}}, "geometry": {"type": "Point", "coordinates": [3.674824311206907, -16.427482069979604]}}, {"type": "Feature", "properties": {"norad_id": 66517, "name": "STARLINK-35937", "group": "last-30-days", "lat": 12.043656005942758, "lon": -171.56736751571523, "alt_km": 442.70579057007035, "timestamp": "2025-12-18T07:01:53.339396+00:00", "meta": {"OBJECT_NAME": "STARLINK-35937", "OBJECT_ID": "2025-265B", "EPOCH": "2025-12-18T00:00:02.000160", "MEAN_MOTION": 15.40635002, "ECCENTRICITY": 0.00017448, "INCLINATION": 43.0002, "RA_OF_ASC_NODE": 23.3566, "ARG_OF_PERICENTER": 277.1728, "MEAN_ANOMALY": 58.1737, "EPHEMERIS_TYPE": 0, "CLASSIFICATION_TYPE": "U", "NORAD_CAT_ID": 66517, "ELEMENT_SET_NO": 999, "REV_AT_EPOCH": 584, "BSTAR": 0.0019209565, "MEAN_MOTION_DOT": 0.00080618, "MEAN_MOTION_DDOT": 0}, "tle": {"line1": "1 66517U 25265B   25352.00002315  .00080618  00000+0  19210-2 0  9990", "line2": "2 66517  43.0002  23.3566 0001744 277.1728  58.1737 15.40635002  5845"}}, "geometry": {"type": "Point", "coordinates": [-171.56736751571523, 12.043656005942758]}}, {"type": "Feature", "properties": {"norad_id": 66518, "name": "STARLINK-35962", "group": "last-30-days", "lat": 41.19369734915568, "lon": 91.8013239141692, "alt_km": 438.63638305827226, "timestamp": "2025-12-18T07:01:53.339414+00:00", "meta": {"OBJECT_NAME": "STARLINK-35962", "OBJECT_ID": "2025-265C", "EPOCH": "2025-12-18T00:00:02.000160", "MEAN_MOTION": 15.40641049, "ECCENTRICITY": 0.00015817, "INCLINATION": 43.0007, "RA_OF_ASC_NODE": 23.5684, "ARG_OF_PERICENTER": 254.484, "MEAN_ANOMALY": 353.795, "EPHEMERIS_TYPE": 0, "CLASSIFICATION_TYPE": "U", "NORAD_CAT_ID": 66518, "ELEMENT_SET_NO": 999, "REV_AT_EPOCH": 584, "BSTAR": 0.0014584828, "MEAN_MOTION_DOT": 0.0006099, "MEAN_MOTION_DDOT": 0}, "tle": {"line1": "1 66518U 25265C   25352.00002315  .00060990  00000+0  14585-2 0  9992", "line2": "2 66518  43.0007  23.5684 0001581 254.4840 353.7950 15.40641049  5845"}}, "geometry": {"type": "Point", "coordinates": [91.8013239141692, 41.19369734915568]}}, {"type": "Feature", "properties": {"norad_id": 66519, "name": "STARLINK-35931", "group": "last-30-days", "lat": -25.119343550126136, "lon": -128.26075365675962, "alt_km": 416.7278726374925, "timestamp": "2025-12-18T07:01:53.339427+00:00", "meta": {"OBJECT_NAME": "STARLINK-35931", "OBJECT_ID": "2025-265D", "EPOCH": "2025-12-17T11:32:34.790208", "MEAN_MOTION": 15.5058288, "ECCENTRICITY": 0.00018413, "INCLINATION": 42.9979, "RA_OF_ASC_NODE": 26.2806, "ARG_OF_PERICENTER": 290.0106, "MEAN_ANOMALY": 70.0556, "EPHEMERIS_TYPE": 0, "CLASSIFICATION_TYPE": "U", "NORAD_CAT_ID": 66519, "ELEMENT_SET_NO": 999, "REV_AT_EPOCH": 449, "BSTAR": 0.0013422359, "MEAN_MOTION_DOT": 0.00079214, "MEAN_MOTION_DDOT": 0}, "tle": {"line1": "1 66519U 25265D   25351.48095822  .00079214  00000+0  13422-2 0  9997", "line2": "2 66519  42.9979  26.2806 0001841 290.0106  70.0556 15.50582880  4497"}}, "geometry": {"type": "Point", "coordinates": [-128.26075365675962, -25.119343550126136]}}, {"type": "Feature", "properties": {"norad_id": 66520, "name": "STARLINK-35952", "group": "last-30-days", "lat": 17.025637721309725, "lon": 41.18084721969124, "alt_km": 441.85876165232366, "timestamp": "2025-12-18T07:01:53.339440+00:00", "meta": {"OBJECT_NAME": "STARLINK-35952", "OBJECT_ID": "2025-265E", "EPOCH": "2025-12-17T12:15:06.089760", "MEAN_MOTION": 15.40728181, "ECCENTRICITY": 0.00022149, "INCLINATION": 43.0009, "RA_OF_ASC_NODE": 26.5074, "ARG_OF_PERICENTER": 259.4071, "MEAN_ANOMALY": 100.6536, "EPHEMERIS_TYPE": 0, "CLASSIFICATION_TYPE": "U", "NORAD_CAT_ID": 66520, "ELEMENT_SET_NO": 999, "REV_AT_EPOCH": 449, "BSTAR": 0.00093596783, "MEAN_MOTION_DOT": 0.00039032, "MEAN_MOTION_DDOT": 0}, "tle": {"line1": "1 66520U 25265E   25351.51048715  .00039032  00000+0  93597-3 0  9998", "line2": "2 66520  43.0009  26.5074 0002214 259.4071 100.6536 15.40728181  4493"}}, "geometry": {"type": "Point", "coordinates": [41.18084721969124, 17.025637721309725]}}, {"type": "Feature", "properties": {"norad_id": 66521, "name": "STARLINK-35915", "group": "last-30-days", "lat": 39.07616178598618, "lon": 141.17285930006062, "alt_km": 438.39560467773117, "timestamp": "2025-12-18T07:01:53.339456+00:00", "meta": {"OBJECT_NAME": "STARLINK-35915", "OBJECT_ID": "2025-265F", "EPOCH": "2025-12-18T00:00:02.000160", "MEAN_MOTION": 15.4066777, "ECCENTRICITY": 0.00011179, "INCLINATION": 43.0008, "RA_OF_ASC_NODE": 23.4765, "ARG_OF_PERICENTER": 250.603, "MEAN_ANOMALY": 34.9672, "EPHEMERIS_TYPE": 0, "CLASSIFICATION_TYPE": "U", "NORAD_CAT_ID": 66521, "ELEMENT_SET_NO": 999, "REV_AT_EPOCH": 584, "BSTAR": 0.0014489124, "MEAN_MOTION_DOT": 0.00060638, "MEAN_MOTION_DDOT": 0}, "tle": {"line1": "1 66521U 25265F   25352.00002315  .00060638  00000+0  14489-2 0  9998", "line2": "2 66521  43.0008  23.4765 0001117 250.6030  34.9672 15.40667770  5841"}}, "geometry": {"type": "Point", "coordinates": [141.17285930006062, 39.07616178598618]}}, {"type": "Feature", "properties": {"norad_id": 66522, "name": "STARLINK-35946", "group": "last-30-days", "lat": -15.879275604593541, "lon": -140.6609029833426, "alt_km": 429.78863996850305, "timestamp": "2025-12-18T07:01:53.339469+00:00", "meta": {"OBJECT_NAME": "STARLINK-35946", "OBJECT_ID": "2025-265G", "EPOCH": "2025-12-17T11:33:06.827328", "MEAN_MOTION": 15.46651991, "ECCENTRICITY": 0.00018476, "INCLINATION": 43.0026, "RA_OF_ASC_NODE": 26.2841, "ARG_OF_PERICENTER": 266.7285, "MEAN_ANOMALY": 93.3363, "EPHEMERIS_TYPE": 0, "CLASSIFICATION_TYPE": "U", "NORAD_CAT_ID": 66522, "ELEMENT_SET_NO": 999, "REV_AT_EPOCH": 449, "BSTAR": -0.0089913208, "MEAN_MOTION_DOT": -0.00435024, "MEAN_MOTION_DDOT": 0}, "tle": {"line1": "1 66522U 25265G   25351.48132902 -.00435024  00000+0 -89913-2 0  9997", "line2": "2 66522  43.0026  26.2841 0001847 266.7285  93.3363 15.46651991  4498"}}, "geometry": {"type": "Point", "coordinates": [-140.6609029833426, -15.879275604593541]}}, {"type": "Feature", "properties": {"norad_id": 66523, "name": "STARLINK-35969", "group": "last-30-days", "lat": -29.497169758227066, "lon": -121.11546249231093, "alt_km": 416.4654523410927, "timestamp": "2025-12-18T07:01:53.339480+00:00", "meta": {"OBJECT_NAME": "STARLINK-35969", "OBJECT_ID": "2025-265H", "EPOCH": "2025-12-17T09:57:49.760928", "MEAN_MOTION": 15.50607296, "ECCENTRICITY": 0.0005219, "INCLINATION": 43.006, "RA_OF_ASC_NODE": 26.6509, "ARG_OF_PERICENTER": 296.7394, "MEAN_ANOMALY": 63.2932, "EPHEMERIS_TYPE": 0, "CLASSIFICATION_TYPE": "U", "NORAD_CAT_ID": 66523, "ELEMENT_SET_NO": 999, "REV_AT_EPOCH": 448, "BSTAR": 0.0010663267, "MEAN_MOTION_DOT": 0.00062808, "MEAN_MOTION_DDOT": 0}, "tle": {"line1": "1 66523U 25265H   25351.41515927  .00062808  00000+0  10663-2 0  9993", "line2": "2 66523  43.0060  26.6509 0005219 296.7394  63.2932 15.50607296  4484"}}, "geometry": {"type": "Point", "coordinates": [-121.11546249231093, -29.497169758227066]}}, {"type": "Feature", "properties": {"norad_id": 66524, "name": "STARLINK-35687", "group": "last-30-days", "lat": 0.4632058032968628, "lon": 22.557513044391964, "alt_km": 443.43487806911617, "timestamp": "2025-12-18T07:01:53.339491+00:00", "meta": {"OBJECT_NAME": "STARLINK-35687", "OBJECT_ID": "2025-265J", "EPOCH": "2025-12-17T03:01:25.884192", "MEAN_MOTION": 15.40728606, "ECCENTRICITY": 0.0001019, "INCLINATION": 43.0029, "RA_OF_ASC_NODE": 28.7873, "ARG_OF_PERICENTER": 263.2844, "MEAN_ANOMALY": 96.7897, "EPHEMERIS_TYPE": 0, "CLASSIFICATION_TYPE": "U", "NORAD_CAT_ID": 66524, "ELEMENT_SET_NO": 999, "REV_AT_EPOCH": 443, "BSTAR": 0.00080546237, "MEAN_MOTION_DOT": 0.00033522, "MEAN_MOTION_DDOT": 0}, "tle": {"line1": "1 66524U 25265J   25351.12599403  .00033522  00000+0  80546-3 0  9992", "line2": "2 66524  43.0029  28.7873 0001019 263.2844  96.7897 15.40728606  4434"}}, "geometry": {"type": "Point", "coordinates": [22.557513044391964, 0.4632058032968628]}}, {"type": "Feature", "properties": {"norad_id": 66525, "name": "STARLINK-35975", "group": "last-30-days", "lat": 31.54435976998147, "lon": 63.14190267889706, "alt_km": 439.7558986621316, "timestamp": "2025-12-18T07:01:53.339503+00:00", "meta": {"OBJECT_NAME": "STARLINK-35975", "OBJECT_ID": "2025-265K", "EPOCH": "2025-12-18T00:00:02.000160", "MEAN_MOTION": 15.40667231, "ECCENTRICITY": 0.00012296, "INCLINATION": 43.0008, "RA_OF_ASC_NODE": 23.6266, "ARG_OF_PERICENTER": 257.3436, "MEAN_ANOMALY": 326.0251, "EPHEMERIS_TYPE": 0, "CLASSIFICATION_TYPE": "U", "NORAD_CAT_ID": 66525, "ELEMENT_SET_NO": 999, "REV_AT_EPOCH": 584, "BSTAR": 0.0012759803, "MEAN_MOTION_DOT": 0.00053312, "MEAN_MOTION_DDOT": 0}, "tle": {"line1": "1 66525U 25265K   25352.00002315  .00053312  00000+0  12760-2 0  9993", "line2": "2 66525  43.0008  23.6266 0001229 257.3436 326.0251 15.40667231  5841"}}, "geometry": {"type": "Point", "coordinates": [63.14190267889706, 31.54435976998147]}}]}